[{"OBJECT_NAME":"UWE-4","OBJECT_ID":"2018-111E","EPOCH":"2026-03-09T17:45:41.156352","MEAN_MOTION":15.39989264,"ECCENTRICITY":0.00075308,"INCLINATION":97.5841,"RA_OF_ASC_NODE":353.0294,"ARG_OF_PERICENTER":339.4687,"MEAN_ANOMALY":20.6255,"EPHEMERIS_TYPE":0,"CLASSIFICATION_TYPE":"U","NORAD_CAT_ID":43880,"ELEMENT_SET_NO":999,"REV_AT_EPOCH":39544,"BSTAR":0.00083385764,"MEAN_MOTION_DOT":0.00033304,"MEAN_MOTION_DDOT":0},{"OBJECT_NAME":"TRANSPORTER-12 OBJECT CL","OBJECT_ID":"2025-009CL","EPOCH":"2026-03-09T22:02:51.160416","MEAN_MOTION":15.38834312,"ECCENTRICITY":0.00028913,"INCLINATION":97.3807,"RA_OF_ASC_NODE":152.8971,"ARG_OF_PERICENTER":194.4406,"MEAN_ANOMALY":165.6757,"EPHEMERIS_TYPE":0,"CLASSIFICATION_TYPE":"U","NORAD_CAT_ID":62691,"ELEMENT_SET_NO":999,"REV_AT_EPOCH":6389,"BSTAR":0.0010087925,"MEAN_MOTION_DOT":0.00038813,"MEAN_MOTION_DDOT":0}]
